STARLINK-4065           
1 52841U 22062M   26037.52895780 -.00003622  00000+0 -20965-3 0  9993
2 52841  53.2172 174.0050 0001560 123.3967 236.7174 15.08831954201087
STARLINK-4046           
1 52842U 22062N   26037.34494607  .00000821  00000+0  69691-4 0  9993
2 52842  53.2176 174.7563 0001218  94.4138 265.6994 15.08836293201055
STARLINK-4188           
1 52843U 22062P   26037.52159464 -.00000326  00000+0 -24248-5 0  9995
2 52843  53.2168 174.0400 0001210  87.0664 273.0467 15.08837381201084
STARLINK-4208           
1 52844U 22062Q   26037.40382567  .00000908  00000+0  75141-4 0  9996
2 52844  53.2165 174.5674 0001260  90.8923 269.2214 15.08841064201063
STARLINK-4168           
1 52845U 22062R   26037.52528111 -.00003884  00000+0 -22610-3 0  9997
2 52845  53.2162 174.0883 0001235  76.1114 284.0015 15.08836823201082
STARLINK-4212           
1 52846U 22062S   26037.52624183 -.00000725  00000+0 -27490-4 0  9997
2 52846  53.2175 174.0258 0001410  98.0932 262.0220 15.08839916201089
STARLINK-4206           
1 52847U 22062T   26037.51423626 -.00000493  00000+0 -12925-4 0  9995
2 52847  53.2176 174.0728 0001051  94.5583 265.5529 15.08834007201083
STARLINK-4202           
1 52848U 22062U   26036.67150865  .00000216  00000+0  31659-4 0  9990
2 52848  53.2182 177.8555 0000720  88.4631 271.6444 15.08839725200959
STARLINK-4197           
1 52849U 22062V   26037.50779985 -.00000107  00000+0  11335-4 0  9993
2 52849  53.2177 164.1011 0001007  40.2332 319.8734 15.08830440201215
STARLINK-4187           
1 52850U 22062W   26036.62466550  .00000996  00000+0  80613-4 0  9998
2 52850  53.2162 178.4218 0001337  81.4053 278.7090 15.08847266200942
STARLINK-3809           
1 52851U 22062X   26037.50411486 -.00001105  00000+0 -51341-4 0  9996
2 52851  53.2166 164.1190 0001296  86.5950 273.5190 15.08830611201215
STARLINK-4184           
1 52852U 22062Y   26037.51147900 -.00002669  00000+0 -14969-3 0  9995
2 52852  53.2182 164.0822 0001440 120.0510 240.0625 15.08840223201214
STARLINK-4189           
1 52853U 22062Z   26037.36155384  .00001756  00000+0  12841-3 0  9995
2 52853  53.2180 164.7328 0001249  89.4376 270.6760 15.08830638201191
STARLINK-4204           
1 52854U 22062AA  26037.36795867  .00002493  00000+0  17475-3 0  9999
2 52854  53.2161 164.7280 0001072 100.0203 260.0910 15.08825591201193
STARLINK-4209           
1 52855U 22062AB  26036.62827506  .00000809  00000+0  68856-4 0  9993
2 52855  53.2162 168.0523 0000844  66.7012 293.4069 15.08851336201083
STARLINK-4201           
1 52856U 22062AC  26037.36523846  .00000008  00000+0  18588-4 0  9994
2 52856  53.2160 164.7911 0001179  87.6511 272.4616 15.08833289201198
STARLINK-4199           
1 52857U 22062AD  26036.62090906  .00000422  00000+0  44609-4 0  9992
2 52857  53.2170 168.0869 0001393  82.2568 277.8582 15.08841315201088
STARLINK-4198           
1 52858U 22062AE  26036.76443081  .00000179  00000+0  29350-4 0  9999
2 52858  53.2170 167.4651 0001295  99.8174 260.2965 15.08840721201103
STARLINK-4196           
1 52859U 22062AF  26036.74972831  .00007141  00000+0  46621-3 0  9993
2 52859  53.2162 167.5077 0001433  44.1743 315.9364 15.08846830201105
STARLINK-4191           
1 52860U 22062AG  26036.55835075  .00000888  00000+0  73890-4 0  9992
2 52860  53.2175 168.3689 0001584  66.5631 293.5527 15.08841493201078
STARLINK-4112           
1 52861U 22062AH  26037.52715304 -.00000228  00000+0  37419-5 0  9990
2 52861  53.2175 164.0223 0001402 111.1993 248.9149 15.08833233201227
STARLINK-4010           
1 52862U 22062AJ  26037.34219825  .00000366  00000+0  41105-4 0  9996
2 52862  53.2172 164.8496 0001345  83.0063 277.1082 15.08836265201190
STARLINK-4270           
1 52863U 22062AK  26037.33483927 -.00000455  00000+0 -10512-4 0  9991
2 52863  53.2162 164.8799 0001236  85.4603 274.6530 15.08834929201196
STARLINK-4267           
1 52864U 22062AL  26036.74234760  .00001402  00000+0  10612-3 0  9996
2 52864  53.2171 167.5397 0001309  79.1716 280.9423 15.08843792201107
STARLINK-4274           
1 52865U 22062AM  26037.52253978 -.00001927  00000+0 -10308-3 0  9992
2 52865  53.2192 164.0412 0001446 104.5772 255.5380 15.08816448201229
STARLINK-4272           
1 52866U 22062AN  26037.52988192 -.00000553  00000+0 -16687-4 0  9997
2 52866  53.2172 164.0030 0001353  74.4646 285.6496 15.08827827201221
STARLINK-4126           
1 52867U 22062AP  26037.51516078 -.00000142  00000+0  91428-5 0  9997
2 52867  53.2171 164.0686 0001135  89.9901 270.1221 15.08830235201223
STARLINK-4261           
1 52868U 22062AQ  26037.52620839 -.00000098  00000+0  11940-4 0  9990
2 52868  53.2181 164.0482 0001579  74.9162 285.2005 15.08830488201221
STARLINK-4266           
1 52869U 22062AR  26037.50872130 -.00000518  00000+0 -14437-4 0  9994
2 52869  53.2163 154.0968 0001278  91.4358 268.6781 15.08834055201351
STARLINK-4195           
1 52870U 22062AS  26037.58777253  .00867292  44467-3  82675-3 0  9999
2 52870  53.2133 145.9475 0000196 184.2270 175.8764 16.11324911201488
STARLINK-4207           
1 52871U 22062AT  26036.76903021  .00000841  00000+0  70899-4 0  9999
2 52871  53.2172 157.4177 0001274  79.6275 280.4861 15.08839728201246
STARLINK-4213           
1 52872U 22062AU  26037.50231490 -.00000039  00000+0  15666-4 0  9998
2 52872  53.2184 154.0953 0001497  81.3374 278.7788 15.08830518201350
STARLINK-4211           
1 52873U 22062AV  26037.35783782  .00000212  00000+0  31396-4 0  9998
2 52873  53.2177 154.7742 0001510  90.7603 269.3562 15.08835433201336
STARLINK-4193           
1 52875U 22062AX  26036.75799354  .00000976  00000+0  79392-4 0  9990
2 52875  53.2177 157.4662 0001217  80.9953 279.1177 15.08837192201247
STARLINK-4200           
1 52876U 22062AY  26036.69910766  .00001765  00000+0  12894-3 0  9996
2 52876  53.2180 157.7326 0001452  95.9268 264.1889 15.08843142201233
STARLINK-4214           
1 52877U 22062AZ  26037.52713549  .00021968  00000+0  13942-2 0  9991
2 52877  53.2150 154.0251 0001317  79.1363 280.9777 15.08837356201364
STARLINK-4171           
1 52878U 22062BA  26037.28423418  .00000675  00000+0  60520-4 0  9996
2 52878  53.2181 155.1096 0001568  76.0911 284.0255 15.08838969201324
STARLINK-4139           
1 52879U 22062BB  26037.51607730 -.00000070  00000+0  13661-4 0  9998
2 52879  53.2175 154.0676 0000862  87.7209 272.3882 15.08834705201369
STARLINK-4186           
1 52880U 22062BC  26037.51975520 -.00003712  00000+0 -21528-3 0  9992
2 52880  53.2184 154.0548 0001465 119.3569 240.7569 15.08837201201365
STARLINK-4181           
1 52882U 22062BE  26037.33938904 -.00001515  00000+0 -77147-4 0  9997
2 52882  53.2156 154.4316 0001307  91.5014 268.6128 15.08833607201348
GLOBALSTAR M087         
1 52888U 22064A   26037.19217497 -.00000085  00000+0  10564-3 0  9995
2 52888  51.9998 101.2622 0000684  97.8174 262.2771 12.62266621174599
PVSAT                   
1 52894U 22065A   26037.38869493  .00000555  00000+0  12685-3 0  9990
2 52894  98.2051 178.0510 0010455  68.7174 291.5142 14.59442822193272
KSLV-II DUMMY           
1 52895U 22065B   26037.36284120  .00000096  00000+0  30512-4 0  9997
2 52895  98.2107 178.5680 0009576  84.5406 275.6885 14.58666892193286
STEP CUBE LAB-II        
1 52897U 22065D   26037.52101257  .00001801  00000+0  36005-3 0  9993
2 52897  98.1999 182.0015 0009761  76.8858 283.3432 14.63043426192392
RANDEV                  
1 52898U 22065E   26037.48772905  .00001690  00000+0  33572-3 0  9995
2 52898  98.1983 182.2622 0009061  77.4796 282.7419 14.63412675192139
SNUGLITE-II             
1 52899U 22065F   26037.37066781  .00001805  00000+0  35317-3 0  9999
2 52899  98.1975 182.6121 0008556  77.4381 282.7777 14.64039147191852
MIMAN                   
1 52900U 22065G   26037.37458249  .00001013  00000+0  21303-3 0  9997
2 52900  98.2028 180.6884 0008767  77.7855 282.4327 14.61656153191332
CMS-02 (GSAT 24)        
1 52903U 22067A   26037.50232181  .00000000  00000+0  00000+0 0  9994
2 52903   0.0154  99.5551 0003786 191.0141 109.9090  1.00269462 13299
MEASAT 3D               
1 52904U 22067B   26037.50772984 -.00000240  00000+0  00000+0 0  9992
2 52904   0.0611 288.4466 0003458  30.1961  92.2412  1.00270926 13335
YAOGAN-35 02A           
1 52907U 22068A   26036.98061204  .00011088  00000+0  47300-3 0  9992
2 52907  34.9904 243.9968 0012080 330.2397  29.7629 15.22073994201878
YAOGAN-35 02B           
1 52908U 22068B   26037.50663615  .00092428  00000+0  19154-2 0  9998
2 52908  34.9973 196.6611 0002150 356.8313   3.2395 15.44480192202383
GAOFEN-12 03            
1 52912U 22069A   26037.56076652  .00001031  00000+0  14377-3 0  9992
2 52912  97.8447 288.6165 0001025 115.8156 244.3161 14.79775328195291
SES-22                  
1 52933U 22071A   26037.38439582  .00000000  00000+0  00000+0 0  9992
2 52933   0.0204  89.1303 0000948 229.8958 176.8756  1.00269133  6212
DS-EO                   
1 52935U 22072A   26037.51800493  .00008610  00000+0  43287-3 0  9996
2 52935   9.9946  80.5715 0004023 218.2864 141.7066 15.12609490198683
WFOV (USA 332)          
1 52940U 22073A   26037.52714193 -.00000362  00000+0  00000+0 0  9994
2 52940   3.3757  80.2443 0001374 181.9876 183.4572  1.00273218 13067
COSMOS 2557 [GLONASS-K] 
1 52984U 22075A   26037.18528868 -.00000076  00000+0  00000+0 0  9990
2 52984  64.3759 319.1016 0012453 282.2823  77.6122  2.13101604 27920
STARLINK-4260           
1 52986U 22076A   26036.78375401  .00000143  00000+0  27076-4 0  9992
2 52986  53.2169 237.3538 0001379  91.2178 268.8972 15.08835331198026
STARLINK-4259           
1 52987U 22076B   26036.95579194  .00003147  00000+0  21570-3 0  9996
2 52987  53.2152 246.5806 0001254  89.5274 270.5862 15.08842265197917
STARLINK-4291           
1 52988U 22076C   26037.50871778  .00001430  00000+0  10795-3 0  9992
2 52988  53.2150 234.0980 0001524  96.4814 263.6351 15.08828666198138
